1 25544U 98067A   24275.11342934  .00025652  00000-0  45562-3 0  9992
2 25544  51.6388 150.7184 0007070  47.8248 112.0430 15.50002848474971
1 25544U 98067A   24275.04592270  .00030250  00000-0  53574-3 0  9996
2 25544  51.6382 151.0497 0007471  49.2119  93.7160 15.49989390474962
1 25544U 98067A   24274.50455490  .00031827  00000-0  56373-3 0  9999
2 25544  51.6367 153.7358 0007188  46.4178 313.7407 15.49960791474883
